0 BREEZE-M DEB
1 38885U 12044S   13282.21711026  .00612200  36959-4  11222-1 0  5025
2 38885 050.1623 233.2473 1688186 182.7789 176.2595 12.16618638 40118
0 BREEZE-M DEB
1 38885U 12044S   13283.12014559  .00544879  30185-4  99649-2 0  5035
2 38885 050.1586 230.4632 1683400 185.0658 173.0990 12.17675257 40224
0 BREEZE-M DEB
1 38885U 12044S   13283.28424885  .00571923  32822-4  10447-1 0  5048
2 38885 050.1594 229.9536 1682670 185.4935 172.5087 12.17845995 40240
0 BREEZE-M DEB
1 38885U 12044S   13284.10443589  .00518232  27727-4  94518-2 0  5057
2 38885 050.1598 227.4197 1679133 187.5761 169.6396 12.18625185 40349
0 BREEZE-M DEB
1 38885U 12044S   13284.26840597  .00525690  28406-4  95901-2 0  5063
2 38885 050.1599 226.9129 1678502 187.9982 169.0591 12.18755931 40363
0 BREEZE-M DEB
1 38885U 12044S   13285.16989093  .00480567  24459-4  87680-2 0  5082
2 38885 050.1596 224.1257 1674370 190.2822 165.9262 12.19639122 40477
0 BREEZE-M DEB
1 38885U 12044S   13286.07074717  .00505135  26575-4  91616-2 0  5096
2 38885 050.1574 221.3382 1670698 192.5769 162.7907 12.20503866 40585
0 BREEZE-M DEB
1 38885U 12044S   13286.80733732  .00505610  26622-4  91521-2 0  5104
2 38885 050.1586 219.0514 1667692 194.4565 160.2336 12.21173057 40679
0 BREEZE-M DEB
1 38885U 12044S   13288.03406772  .00642731  40475-4  11592-1 0  5110
2 38885 050.1577 215.2413 1662041 197.5935 155.9938 12.22422481 40828
0 BREEZE-M DEB
1 38885U 12044S   13288.19753307  .00651105  41444-4  11724-1 0  5126
2 38885 050.1580 214.7311 1660847 198.0112 155.4338 12.22699819 40840
0 BREEZE-M DEB
1 38885U 12044S   13289.01444428  .00561848  31923-4  10096-1 0  5136
2 38885 050.1594 212.1878 1657168 200.1038 152.6285 12.23518680 40947
0 BREEZE-M DEB
1 38885U 12044S   13289.17776034  .00567804  32520-4  10238-1 0  5145
2 38885 050.1569 211.6811 1655926 200.5276 152.0649 12.23735617 40969
0 BREEZE-M DEB
1 38885U 12044S   13290.15718692  .00573094  33070-4  10329-1 0  5152
2 38885 050.1563 208.6285 1651580 203.0367 148.7287 12.24669486 41080
0 BREEZE-M DEB
1 38885U 12044S   13291.13583620  .00520330  28013-4  93768-2 0  5168
2 38885 050.1577 205.5729 1646607 205.5453 145.4238 12.25736910 41203
0 BREEZE-M DEB
1 38885U 12044S   13292.11370041  .00479639  24445-4  86146-2 0  5171
2 38885 050.1600 202.5127 1642678 208.0615 142.1317 12.26626565 41321
0 BREEZE-M DEB
1 38885U 12044S   13293.09086355  .00470569  23695-4  83483-2 0  5182
2 38885 050.1557 199.4515 1639405 210.5939 138.8438 12.27499724 41443
0 BREEZE-M DEB
1 38885U 12044S   13293.74193636  .00473285  23924-4  83683-2 0  5191
2 38885 050.1554 197.4087 1637091 212.2747 136.6799 12.28041363 41525
0 BREEZE-M DEB
1 38885U 12044S   13294.06735945  .00483809  24814-4  85556-2 0  5207
2 38885 050.1552 196.3880 1635703 213.1165 135.6033 12.28335244 41562
0 BREEZE-M DEB
1 38885U 12044S   13294.14870358  .00479085  24413-4  84758-2 0  5214
2 38885 050.1553 196.1327 1635388 213.3280 135.3331 12.28396767 41572
0 BREEZE-M DEB
1 38885U 12044S   13294.79930527  .00499478  26178-4  87895-2 0  5224
2 38885 050.1552 194.0887 1633178 215.0085 133.1925 12.28942765 41655
0 BREEZE-M DEB
1 38885U 12044S   13295.04320096  .00457604  22646-4  80680-2 0  5234
2 38885 050.1557 193.3215 1632226 215.6477 132.3830 12.29122931 41686
0 BREEZE-M DEB
1 38885U 12044S   13296.09967082  .00460796  22913-4  80940-2 0  5245
2 38885 050.1558 189.9964 1628220 218.3769 128.9516 12.30031858 41818
